{
    "links": {
        "self": "http://www.neowsapp.com/rest/v1/neo/3638506?api_key=iIulBulltgU6a56xZRHN4H3l9WmuAYTsLGpBGhQ2"
    },
    "id": "3638506",
    "neo_reference_id": "3638506",
    "name": "(2013 JD34)",
    "designation": "2013 JD34",
    "nasa_jpl_url": "http://ssd.jpl.nasa.gov/sbdb.cgi?sstr=3638506",
    "absolute_magnitude_h": 25.0,
    "estimated_diameter": {
        "kilometers": {
            "estimated_diameter_min": 0.02658,
            "estimated_diameter_max": 0.0594346868
        },
        "meters": {
            "estimated_diameter_min": 26.58,
            "estimated_diameter_max": 59.4346868419
        },
        "miles": {
            "estimated_diameter_min": 0.0165160412,
            "estimated_diameter_max": 0.0369309908
        },
        "feet": {
            "estimated_diameter_min": 87.2047272,
            "estimated_diameter_max": 194.9956979785
        }
    },
    "is_potentially_hazardous_asteroid": false,
    "close_approach_data": [
        {
            "close_approach_date": "2013-05-06",
            "close_approach_date_full": "2013-May-06 23:51",
            "epoch_date_close_approach": 1367884260000,
            "relative_velocity": {
                "kilometers_per_second": "20.9983682663",
                "kilometers_per_hour": "75594.125758568",
                "miles_per_hour": "46971.2499748169"
            },
            "miss_distance": {
                "astronomical": "0.0068594043",
                "lunar": "2.6683082727",
                "kilometers": "1026152.272748841",
                "miles": "637621.4553863658"
            },
            "orbiting_body": "Moon"
        },
        {
            "close_approach_date": "2013-05-07",
            "close_approach_date_full": "2013-May-07 03:36",
            "epoch_date_close_approach": 1367897760000,
            "relative_velocity": {
                "kilometers_per_second": "20.2885964298",
                "kilometers_per_hour": "73038.9471474442",
                "miles_per_hour": "45383.5613539216"
            },
            "miss_distance": {
                "astronomical": "0.0059264516",
                "lunar": "2.3053896724",
                "kilometers": "886584.536018092",
                "miles": "550898.0851979896"
            },
            "orbiting_body": "Earth"
        }
    ],
    "orbital_data": {
        "orbit_id": "6",
        "orbit_determination_date": "2017-04-06 08:45:48",
        "first_observation_date": "2013-05-15",
        "last_observation_date": "2013-05-21",
        "data_arc_in_days": 6,
        "observations_used": 19,
        "orbit_uncertainty": "8",
        "minimum_orbit_intersection": ".00590147",
        "jupiter_tisserand_invariant": "2.791",
        "epoch_osculation": "2456429.5",
        "eccentricity": ".7598246426310654",
        "semi_major_axis": "2.826963266872122",
        "inclination": "7.363380270691128",
        "ascending_node_longitude": "229.0533900816974",
        "orbital_period": "1736.115741665385",
        "perihelion_distance": ".6789669128898627",
        "perihelion_argument": "281.3626609597428",
        "aphelion_distance": "4.97495962085438",
        "perihelion_time": "2456376.153717973195",
        "mean_anomaly": "11.06185553690536",
        "mean_motion": ".2073594469310362",
        "equinox": "J2000",
        "orbit_class": {
            "orbit_class_type": "APO",
            "orbit_class_description": "Near-Earth asteroid orbits which cross the Earth’s orbit similar to that of 1862 Apollo",
            "orbit_class_range": "a (semi-major axis) > 1.0 AU; q (perihelion) < 1.017 AU"
        }
    },
    "is_sentry_object": false
}